{"address_book":[{"category":"deno","name":"deno ooo","street":"de nooooooooooooo","zip_code":"sddasd","city":"ddd d f"},{"category":"deb","name":"et dddfs","street":"et","zip_code":"sASAS","city":"sdqtghj"},{"category":"ssdad","name":"awefe D","street":"awefe","zip_code":"ASDSAD","city":"dwgjd"},{"category":"WEESDSADcfhb m","name":"SDSD cfghbj","street":"SDS DD tfgyuhjk","zip_code":"SAXASD","city":"sghje fbjhn"},{"category":"deno","name":"deno","street":"deno","zip_code":"murugu","city":"murugu"},{"category":"dghdjqFKGVJBHKNM","name":"dcwgvjhw VGBJHNK","street":"dcvsgjhw FHKCVBJSHNKLHJ","zip_code":"CSDGVCJHWDK","city":"SDCGVJH"},{"category":"ddcfgjb","name":"edfyghj","street":"edtfghbj","zip_code":"xdcfgbm","city":"edcfg"},{"category":"hgfvcd","name":"vfcdx","street":"vgfdc","zip_code":"fsvcdcsdfvf","city":"vsvvsd"},{"category":"tdrftgjh","name":"cfgbn","street":"dtrfghb","zip_code":"cfgvbn sexdtcfgvjbhnjllktryf","city":"edtrfghbj"},{"category":"dee","name":"dee","street":"dee","zip_code":"dee","city":"dee"},{"category":"fddddddddd","name":"dddddddd","street":"ddddddddd","zip_code":"ddddddddd","city":"dddddddd"},{"category":"hhhh","name":"hhhh","street":"hhhh","zip_code":"hhhh","city":"hhhhh"},{"category":"hhhh","name":"hhhh","street":"hhhh","zip_code":"hhhh","city":"hhhhh"},{"category":"hhhh","name":"hhhh","street":"hhhh","zip_code":"hhhh","city":"hhhhh"},{"category":"hhhh","name":"hhhh","street":"hhhh","zip_code":"hhhh","city":"hhhhh"},{"category":"hhhh","name":"hhhh","street":"hhhh","zip_code":"hhhh","city":"hhhhh"},{"category":"hhhh","name":"hhhh","street":"hhhh","zip_code":"hhhh","city":"hhhhh"},{"category":"hhhh","name":"hhhh","street":"hhhh","zip_code":"hhhh","city":"hhhhh"},{"category":"hhhh","name":"hhhh","street":"hhhh","zip_code":"hhhh","city":"hhhhh"},{"category":"hhhh","name":"hhhh","street":"hhhh","zip_code":"hhhh","city":"hhhhh"},{"category":"hhhh","name":"hhhh","street":"hhhh","zip_code":"hhhh","city":"hhhhh"},{"category":"hhhh","name":"hhhh","street":"hhhh","zip_code":"hhhh","city":"hhhhh"},{"category":"hhhh","name":"hhhh","street":"hhhh","zip_code":"hhhh","city":"hhhhh"},{"category":"hhhh","name":"hhhh","street":"hhhh","zip_code":"hhhh","city":"hhhhh"},{"category":"hhhh","name":"hhhh","street":"hhhh","zip_code":"hhhh","city":"hhhhh"},{"category":"hhhh","name":"hhhh","street":"hhhh","zip_code":"hhhh","city":"hhhhh"},{"category":"hhhh","name":"hhhh","street":"hhhh","zip_code":"hhhh","city":"hhhhh"},{"category":"hhhh","name":"hhhh","street":"hhhh","zip_code":"hhhh","city":"hhhhh"},{"category":"hhhh","name":"hhhh","street":"hhhh","zip_code":"hhhh","city":"hhhhh"},{"category":"hhhh","name":"hhhh","street":"hhhh","zip_code":"hhhh","city":"hhhhh"},{"category":"hhhh","name":"hhhh","street":"hhhh","zip_code":"hhhh","city":"hhhhh"},{"category":"hhhh","name":"hhhh","street":"hhhh","zip_code":"hhhh","city":"hhhhh"},{"category":"hhhh","name":"hhhh","street":"hhhh","zip_code":"hhhh","city":"hhhhh"},{"category":"hhhh","name":"hhhh","street":"hhhh","zip_code":"hhhh","city":"hhhhh"},{"category":"hhhh","name":"hhhh","street":"hhhh","zip_code":"hhhh","city":"hhhhh"},{"category":"hhhh","name":"hhhh","street":"hhhh","zip_code":"hhhh","city":"hhhhh"},{"category":"hhhh","name":"hhhh","street":"hhhh","zip_code":"hhhh","city":"hhhhh"},{"category":"hhhh","name":"hhhh","street":"hhhh","zip_code":"hhhh","city":"hhhhh"},{"category":"hhhh","name":"hhhh","street":"hhhh","zip_code":"hhhh","city":"hhhhh"},{"category":"hhhh","name":"hhhh","street":"hhhh","zip_code":"hhhh","city":"hhhhh"},{"category":"hhhh","name":"hhhh","street":"hhhh","zip_code":"hhhh","city":"hhhhh"},{"category":"hhhh","name":"hhhh","street":"hhhh","zip_code":"hhhh","city":"hhhhh"},{"category":"hhhh","name":"hhhh","street":"hhhh","zip_code":"hhhh","city":"hhhhh"},{"category":"hhhh","name":"hhhh","street":"hhhh","zip_code":"hhhh","city":"hhhhh"},{"category":"hhhh","name":"hhhh","street":"hhhh","zip_code":"hhhh","city":"hhhhh"},{"category":"hhhh","name":"hhhh","street":"hhhh","zip_code":"hhhh","city":"hhhhh"},{"category":"hhhh","name":"hhhh","street":"hhhh","zip_code":"hhhh","city":"hhhhh"},{"category":"hhhh","name":"hhhh","street":"hhhh","zip_code":"hhhh","city":"hhhhh"},{"category":"hhhh","name":"hhhh","street":"hhhh","zip_code":"hhhh","city":"hhhhh"},{"category":"hhhh","name":"hhhh","street":"hhhh","zip_code":"hhhh","city":"hhhhh"},{"category":"hhhh","name":"hhhh","street":"hhhh","zip_code":"hhhh","city":"hhhhh"},{"category":"hhhh","name":"hhhh","street":"hhhh","zip_code":"hhhh","city":"hhhhh"},{"category":"hhhh","name":"hhhh","street":"hhhh","zip_code":"hhhh","city":"hhhhh"},{"category":"hhhh","name":"hhhh","street":"hhhh","zip_code":"hhhh","city":"hhhhh"},{"category":"hhhh","name":"hhhh","street":"hhhh","zip_code":"hhhh","city":"hhhhh"},{"category":"hhhh","name":"hhhh","street":"hhhh","zip_code":"hhhh","city":"hhhhh"},{"category":"hhhh","name":"hhhh","street":"hhhh","zip_code":"hhhh","city":"hhhhh"},{"category":"hhhh","name":"hhhh","street":"hhhh","zip_code":"hhhh","city":"hhhhh"},{"category":"hhhh","name":"hhhh","street":"hhhh","zip_code":"hhhh","city":"hhhhh"},{"category":"hhhh","name":"hhhh","street":"hhhh","zip_code":"hhhh","city":"hhhhh"},{"category":"hhhh","name":"hhhh","street":"hhhh","zip_code":"hhhh","city":"hhhhh"},{"category":"hhhh","name":"hhhh","street":"hhhh","zip_code":"hhhh","city":"hhhhh"},{"category":"hhhh","name":"hhhh","street":"hhhh","zip_code":"hhhh","city":"hhhhh"},{"category":"hhhh","name":"hhhh","street":"hhhh","zip_code":"hhhh","city":"hhhhh"},{"category":"hhhh","name":"hhhh","street":"hhhh","zip_code":"hhhh","city":"hhhhh"},{"category":"hhhh","name":"hhhh","street":"hhhh","zip_code":"hhhh","city":"hhhhh"},{"category":"hhhh","name":"hhhh","street":"hhhh","zip_code":"hhhh","city":"hhhhh"},{"category":"hhhh","name":"hhhh","street":"hhhh","zip_code":"hhhh","city":"hhhhh"},{"category":"hhhh","name":"hhhh","street":"hhhh","zip_code":"hhhh","city":"hhhhh"},{"category":"hhhh","name":"hhhh","street":"hhhh","zip_code":"hhhh","city":"hhhhh"},{"category":"hhhh","name":"hhhh","street":"hhhh","zip_code":"hhhh","city":"hhhhh"},{"category":"hhhh","name":"hhhh","street":"hhhh","zip_code":"hhhh","city":"hhhhh"},{"category":"hhhh","name":"hhhh","street":"hhhh","zip_code":"hhhh","city":"hhhhh"},{"category":"hhhh","name":"hhhh","street":"hhhh","zip_code":"hhhh","city":"hhhhh"},{"category":"hhhh","name":"hhhh","street":"hhhh","zip_code":"hhhh","city":"hhhhh"},{"category":"hhhh","name":"hhhh","street":"hhhh","zip_code":"hhhh","city":"hhhhh"},{"category":"hhhh","name":"hhhh","street":"hhhh","zip_code":"hhhh","city":"hhhhh"},{"category":"hhhh","name":"hhhh","street":"hhhh","zip_code":"hhhh","city":"hhhhh"},{"category":"hhhh","name":"hhhh","street":"hhhh","zip_code":"hhhh","city":"hhhhh"},{"category":"hhhh","name":"hhhh","street":"hhhh","zip_code":"hhhh","city":"hhhhh"},{"category":"hhhh","name":"hhhh","street":"hhhh","zip_code":"hhhh","city":"hhhhh"},{"category":"hhhh","name":"hhhh","street":"hhhh","zip_code":"hhhh","city":"hhhhh"},{"category":"hhhh","name":"hhhh","street":"hhhh","zip_code":"hhhh","city":"hhhhh"},{"category":"hhhh","name":"hhhh","street":"hhhh","zip_code":"hhhh","city":"hhhhh"},{"category":"hhhh","name":"hhhh","street":"hhhh","zip_code":"hhhh","city":"hhhhh"},{"category":"hhhh","name":"hhhh","street":"hhhh","zip_code":"hhhh","city":"hhhhh"},{"category":"hhhh","name":"hhhh","street":"hhhh","zip_code":"hhhh","city":"hhhhh"},{"category":"hhhh","name":"hhhh","street":"hhhh","zip_code":"hhhh","city":"hhhhh"},{"category":"hhhh","name":"hhhh","street":"hhhh","zip_code":"hhhh","city":"hhhhh"},{"category":"hhhh","name":"hhhh","street":"hhhh","zip_code":"hhhh","city":"hhhhh"},{"category":"hhhh","name":"hhhh","street":"hhhh","zip_code":"hhhh","city":"hhhhh"},{"category":"hhhh","name":"hhhh","street":"hhhh","zip_code":"hhhh","city":"hhhhh"},{"category":"hhhh","name":"hhhh","street":"hhhh","zip_code":"hhhh","city":"hhhhh"},{"category":"hhhh","name":"hhhh","street":"hhhh","zip_code":"hhhh","city":"hhhhh"},{"category":"hhhh","name":"hhhh","street":"hhhh","zip_code":"hhhh","city":"hhhhh"},{"category":"hhhh","name":"hhhh","street":"hhhh","zip_code":"hhhh","city":"hhhhh"},{"category":"hhhh","name":"hhhh","street":"hhhh","zip_code":"hhhh","city":"hhhhh"},{"category":"hhhh","name":"hhhh","street":"hhhh","zip_code":"hhhh","city":"hhhhh"},{"category":"hhhh","name":"hhhh","street":"hhhh","zip_code":"hhhh","city":"hhhhh"},{"category":"hhhh","name":"hhhh","street":"hhhh","zip_code":"hhhh","city":"hhhhh"},{"category":"hhhh","name":"hhhh","street":"hhhh","zip_code":"hhhh","city":"hhhhh"},{"category":"hhhh","name":"hhhh","street":"hhhh","zip_code":"hhhh","city":"hhhhh"},{"category":"hhhh","name":"hhhh","street":"hhhh","zip_code":"hhhh","city":"hhhhh"},{"category":"hhhh","name":"hhhh","street":"hhhh","zip_code":"hhhh","city":"hhhhh"},{"category":"hhhh","name":"hhhh","street":"hhhh","zip_code":"hhhh","city":"hhhhh"},{"category":"hhhh","name":"hhhh","street":"hhhh","zip_code":"hhhh","city":"hhhhh"},{"category":"hhhh","name":"hhhh","street":"hhhh","zip_code":"hhhh","city":"hhhhh"},{"category":"hhhh","name":"hhhh","street":"hhhh","zip_code":"hhhh","city":"hhhhh"},{"category":"hhhh","name":"hhhh","street":"hhhh","zip_code":"hhhh","city":"hhhhh"},{"category":"hhhh","name":"hhhh","street":"hhhh","zip_code":"hhhh","city":"hhhhh"},{"category":"hhhh","name":"hhhh","street":"hhhh","zip_code":"hhhh","city":"hhhhh"},{"category":"hhhh","name":"hhhh","street":"hhhh","zip_code":"hhhh","city":"hhhhh"},{"category":"hhhh","name":"hhhh","street":"hhhh","zip_code":"hhhh","city":"hhhhh"},{"category":"hhhh","name":"hhhh","street":"hhhh","zip_code":"hhhh","city":"hhhhh"},{"category":"hhhh","name":"hhhh","street":"hhhh","zip_code":"hhhh","city":"hhhhh"},{"category":"hhhh","name":"hhhh","street":"hhhh","zip_code":"hhhh","city":"hhhhh"},{"category":"hhhh","name":"hhhh","street":"hhhh","zip_code":"hhhh","city":"hhhhh"},{"category":"hhhh","name":"hhhh","street":"hhhh","zip_code":"hhhh","city":"hhhhh"},{"category":"hhhh","name":"hhhh","street":"hhhh","zip_code":"hhhh","city":"hhhhh"},{"category":"hhhh","name":"hhhh","street":"hhhh","zip_code":"hhhh","city":"hhhhh"},{"category":"hhhh","name":"hhhh","street":"hhhh","zip_code":"hhhh","city":"hhhhh"},{"category":"hhhh","name":"hhhh","street":"hhhh","zip_code":"hhhh","city":"hhhhh"},{"category":"hhhh","name":"hhhh","street":"hhhh","zip_code":"hhhh","city":"hhhhh"},{"category":"hhhh","name":"hhhh","street":"hhhh","zip_code":"hhhh","city":"hhhhh"},{"category":"hhhh","name":"hhhh","street":"hhhh","zip_code":"hhhh","city":"hhhhh"},{"category":"hhhh","name":"hhhh","street":"hhhh","zip_code":"hhhh","city":"hhhhh"},{"category":"hhhh","name":"hhhh","street":"hhhh","zip_code":"hhhh","city":"hhhhh"},{"category":"hhhh","name":"hhhh","street":"hhhh","zip_code":"hhhh","city":"hhhhh"},{"category":"hhhh","name":"hhhh","street":"hhhh","zip_code":"hhhh","city":"hhhhh"},{"category":"hhhh","name":"hhhh","street":"hhhh","zip_code":"hhhh","city":"hhhhh"},{"category":"hhhh","name":"hhhh","street":"hhhh","zip_code":"hhhh","city":"hhhhh"},{"category":"hhhh","name":"hhhh","street":"hhhh","zip_code":"hhhh","city":"hhhhh"},{"category":"hhhh","name":"hhhh","street":"hhhh","zip_code":"hhhh","city":"hhhhh"},{"category":"hhhh","name":"hhhh","street":"hhhh","zip_code":"hhhh","city":"hhhhh"},{"category":"hhhh","name":"hhhh","street":"hhhh","zip_code":"hhhh","city":"hhhhh"},{"category":"hhhh","name":"hhhh","street":"hhhh","zip_code":"hhhh","city":"hhhhh"},{"category":"hhhh","name":"hhhh","street":"hhhh","zip_code":"hhhh","city":"hhhhh"},{"category":"hhhh","name":"hhhh","street":"hhhh","zip_code":"hhhh","city":"hhhhh"},{"category":"hhhh","name":"hhhh","street":"hhhh","zip_code":"hhhh","city":"hhhhh"},{"category":"hhhh","name":"hhhh","street":"hhhh","zip_code":"hhhh","city":"hhhhh"},{"category":"hhhh","name":"hhhh","street":"hhhh","zip_code":"hhhh","city":"hhhhh"},{"category":"hhhh","name":"hhhh","street":"hhhh","zip_code":"hhhh","city":"hhhhh"},{"category":"hhhh","name":"hhhh","street":"hhhh","zip_code":"hhhh","city":"hhhhh"},{"category":"hhhh","name":"hhhh","street":"hhhh","zip_code":"hhhh","city":"hhhhh"},{"category":"hhhh","name":"hhhh","street":"hhhh","zip_code":"hhhh","city":"hhhhh"},{"category":"hhhh","name":"hhhh","street":"hhhh","zip_code":"hhhh","city":"hhhhh"},{"category":"hhhh","name":"hhhh","street":"hhhh","zip_code":"hhhh","city":"hhhhh"},{"category":"hhhh","name":"hhhh","street":"hhhh","zip_code":"hhhh","city":"hhhhh"},{"category":"hhhh","name":"hhhh","street":"hhhh","zip_code":"hhhh","city":"hhhhh"},{"category":"hhhh","name":"hhhh","street":"hhhh","zip_code":"hhhh","city":"hhhhh"},{"category":"hhhh","name":"hhhh","street":"hhhh","zip_code":"hhhh","city":"hhhhh"},{"category":"hhhh","name":"hhhh","street":"hhhh","zip_code":"hhhh","city":"hhhhh"},{"category":"hhhh","name":"hhhh","street":"hhhh","zip_code":"hhhh","city":"hhhhh"},{"category":"hhhh","name":"hhhh","street":"hhhh","zip_code":"hhhh","city":"hhhhh"},{"category":"hhhh","name":"hhhh","street":"hhhh","zip_code":"hhhh","city":"hhhhh"},{"category":"hhhh","name":"hhhh","street":"hhhh","zip_code":"hhhh","city":"hhhhh"},{"category":"hhhh","name":"hhhh","street":"hhhh","zip_code":"hhhh","city":"hhhhh"},{"category":"hhhh","name":"hhhh","street":"hhhh","zip_code":"hhhh","city":"hhhhh"},{"category":"hhhh","name":"hhhh","street":"hhhh","zip_code":"hhhh","city":"hhhhh"},{"category":"hhhh","name":"hhhh","street":"hhhh","zip_code":"hhhh","city":"hhhhh"},{"category":"hhhh","name":"hhhh","street":"hhhh","zip_code":"hhhh","city":"hhhhh"},{"category":"hhhh","name":"hhhh","street":"hhhh","zip_code":"hhhh","city":"hhhhh"},{"category":"hhhh","name":"hhhh","street":"hhhh","zip_code":"hhhh","city":"hhhhh"},{"category":"hhhh","name":"hhhh","street":"hhhh","zip_code":"hhhh","city":"hhhhh"},{"category":"hhhh","name":"hhhh","street":"hhhh","zip_code":"hhhh","city":"hhhhh"},{"category":"hhhh","name":"hhhh","street":"hhhh","zip_code":"hhhh","city":"hhhhh"},{"category":"hhhh","name":"hhhh","street":"hhhh","zip_code":"hhhh","city":"hhhhh"},{"category":"hhhh","name":"hhhh","street":"hhhh","zip_code":"hhhh","city":"hhhhh"},{"category":"hhhh","name":"hhhh","street":"hhhh","zip_code":"hhhh","city":"hhhhh"},{"category":"hhhh","name":"hhhh","street":"hhhh","zip_code":"hhhh","city":"hhhhh"},{"category":"hhhh","name":"hhhh","street":"hhhh","zip_code":"hhhh","city":"hhhhh"},{"category":"hhhh","name":"hhhh","street":"hhhh","zip_code":"hhhh","city":"hhhhh"},{"category":"hhhh","name":"hhhh","street":"hhhh","zip_code":"hhhh","city":"hhhhh"},{"category":"hhhh","name":"hhhh","street":"hhhh","zip_code":"hhhh","city":"hhhhh"},{"category":"hhhh","name":"hhhh","street":"hhhh","zip_code":"hhhh","city":"hhhhh"},{"category":"hhhh","name":"hhhh","street":"hhhh","zip_code":"hhhh","city":"hhhhh"},{"category":"hhhh","name":"hhhh","street":"hhhh","zip_code":"hhhh","city":"hhhhh"},{"category":"hhhh","name":"hhhh","street":"hhhh","zip_code":"hhhh","city":"hhhhh"},{"category":"hhhh","name":"hhhh","street":"hhhh","zip_code":"hhhh","city":"hhhhh"},{"category":"hhhh","name":"hhhh","street":"hhhh","zip_code":"hhhh","city":"hhhhh"},{"category":"hhhh","name":"hhhh","street":"hhhh","zip_code":"hhhh","city":"hhhhh"},{"category":"hhhh","name":"hhhh","street":"hhhh","zip_code":"hhhh","city":"hhhhh"},{"category":"hhhh","name":"hhhh","street":"hhhh","zip_code":"hhhh","city":"hhhhh"},{"category":"hhhh","name":"hhhh","street":"hhhh","zip_code":"hhhh","city":"hhhhh"},{"category":"hhhh","name":"hhhh","street":"hhhh","zip_code":"hhhh","city":"hhhhh"},{"category":"hhhh","name":"hhhh","street":"hhhh","zip_code":"hhhh","city":"hhhhh"},{"category":"hhhh","name":"hhhh","street":"hhhh","zip_code":"hhhh","city":"hhhhh"},{"category":"hhhh","name":"hhhh","street":"hhhh","zip_code":"hhhh","city":"hhhhh"},{"category":"hhhh","name":"hhhh","street":"hhhh","zip_code":"hhhh","city":"hhhhh"},{"category":"hhhh","name":"hhhh","street":"hhhh","zip_code":"hhhh","city":"hhhhh"},{"category":"hhhh","name":"hhhh","street":"hhhh","zip_code":"hhhh","city":"hhhhh"},{"category":"hhhh","name":"hhhh","street":"hhhh","zip_code":"hhhh","city":"hhhhh"},{"category":"hhhh","name":"hhhh","street":"hhhh","zip_code":"hhhh","city":"hhhhh"},{"category":"hhhh","name":"hhhh","street":"hhhh","zip_code":"hhhh","city":"hhhhh"},{"category":"hhhh","name":"hhhh","street":"hhhh","zip_code":"hhhh","city":"hhhhh"},{"category":"hhhh","name":"hhhh","street":"hhhh","zip_code":"hhhh","city":"hhhhh"},{"category":"hhhh","name":"hhhh","street":"hhhh","zip_code":"hhhh","city":"hhhhh"},{"category":"hhhh","name":"hhhh","street":"hhhh","zip_code":"hhhh","city":"hhhhh"},{"category":"hhhh","name":"hhhh","street":"hhhh","zip_code":"hhhh","city":"hhhhh"},{"category":"hhhh","name":"hhhh","street":"hhhh","zip_code":"hhhh","city":"hhhhh"},{"category":"hhhh","name":"hhhh","street":"hhhh","zip_code":"hhhh","city":"hhhhh"},{"category":"hhhh","name":"hhhh","street":"hhhh","zip_code":"hhhh","city":"hhhhh"},{"category":"hhhh","name":"hhhh","street":"hhhh","zip_code":"hhhh","city":"hhhhh"},{"category":"hhhh","name":"hhhh","street":"hhhh","zip_code":"hhhh","city":"hhhhh"},{"category":"hhhh","name":"hhhh","street":"hhhh","zip_code":"hhhh","city":"hhhhh"},{"category":"hhhh","name":"hhhh","street":"hhhh","zip_code":"hhhh","city":"hhhhh"},{"category":"hhhh","name":"hhhh","street":"hhhh","zip_code":"hhhh","city":"hhhhh"},{"category":"hhhh","name":"hhhh","street":"hhhh","zip_code":"hhhh","city":"hhhhh"},{"category":"hhhh","name":"hhhh","street":"hhhh","zip_code":"hhhh","city":"hhhhh"},{"category":"hhhh","name":"hhhh","street":"hhhh","zip_code":"hhhh","city":"hhhhh"},{"category":"hhhh","name":"hhhh","street":"hhhh","zip_code":"hhhh","city":"hhhhh"},{"category":"hhhh","name":"hhhh","street":"hhhh","zip_code":"hhhh","city":"hhhhh"},{"category":"hhhh","name":"hhhh","street":"hhhh","zip_code":"hhhh","city":"hhhhh"},{"category":"hhhh","name":"hhhh","street":"hhhh","zip_code":"hhhh","city":"hhhhh"},{"category":"hhhh","name":"hhhh","street":"hhhh","zip_code":"hhhh","city":"hhhhh"},{"category":"hhhh","name":"hhhh","street":"hhhh","zip_code":"hhhh","city":"hhhhh"},{"category":"hhhh","name":"hhhh","street":"hhhh","zip_code":"hhhh","city":"hhhhh"},{"category":"hhhh","name":"hhhh","street":"hhhh","zip_code":"hhhh","city":"hhhhh"},{"category":"hhhh","name":"hhhh","street":"hhhh","zip_code":"hhhh","city":"hhhhh"},{"category":"hhhh","name":"hhhh","street":"hhhh","zip_code":"hhhh","city":"hhhhh"},{"category":"hhhh","name":"hhhh","street":"hhhh","zip_code":"hhhh","city":"hhhhh"},{"category":"hhhh","name":"hhhh","street":"hhhh","zip_code":"hhhh","city":"hhhhh"},{"category":"hhhh","name":"hhhh","street":"hhhh","zip_code":"hhhh","city":"hhhhh"},{"category":"hhhh","name":"hhhh","street":"hhhh","zip_code":"hhhh","city":"hhhhh"},{"category":"hhhh","name":"hhhh","street":"hhhh","zip_code":"hhhh","city":"hhhhh"},{"category":"hhhh","name":"hhhh","street":"hhhh","zip_code":"hhhh","city":"hhhhh"},{"category":"hhhh","name":"hhhh","street":"hhhh","zip_code":"hhhh","city":"hhhhh"},{"category":"hhhh","name":"hhhh","street":"hhhh","zip_code":"hhhh","city":"hhhhh"},{"category":"hhhh","name":"hhhh","street":"hhhh","zip_code":"hhhh","city":"hhhhh"},{"category":"hhhh","name":"hhhh","street":"hhhh","zip_code":"hhhh","city":"hhhhh"},{"category":"hhhh","name":"hhhh","street":"hhhh","zip_code":"hhhh","city":"hhhhh"},{"category":"hhhh","name":"hhhh","street":"hhhh","zip_code":"hhhh","city":"hhhhh"},{"category":"hhhh","name":"hhhh","street":"hhhh","zip_code":"hhhh","city":"hhhhh"},{"category":"hhhh","name":"hhhh","street":"hhhh","zip_code":"hhhh","city":"hhhhh"},{"category":"hhhh","name":"hhhh","street":"hhhh","zip_code":"hhhh","city":"hhhhh"},{"category":"hhhh","name":"hhhh","street":"hhhh","zip_code":"hhhh","city":"hhhhh"},{"category":"hhhh","name":"hhhh","street":"hhhh","zip_code":"hhhh","city":"hhhhh"},{"category":"hhhh","name":"hhhh","street":"hhhh","zip_code":"hhhh","city":"hhhhh"},{"category":"hhhh","name":"hhhh","street":"hhhh","zip_code":"hhhh","city":"hhhhh"},{"category":"hhhh","name":"hhhh","street":"hhhh","zip_code":"hhhh","city":"hhhhh"},{"category":"hhhh","name":"hhhh","street":"hhhh","zip_code":"hhhh","city":"hhhhh"},{"category":"hhhh","name":"hhhh","street":"hhhh","zip_code":"hhhh","city":"hhhhh"},{"category":"hhhh","name":"hhhh","street":"hhhh","zip_code":"hhhh","city":"hhhhh"},{"category":"hhhh","name":"hhhh","street":"hhhh","zip_code":"hhhh","city":"hhhhh"},{"category":"hhhh","name":"hhhh","street":"hhhh","zip_code":"hhhh","city":"hhhhh"},{"category":"hhhh","name":"hhhh","street":"hhhh","zip_code":"hhhh","city":"hhhhh"},{"category":"hhhh","name":"hhhh","street":"hhhh","zip_code":"hhhh","city":"hhhhh"},{"category":"hhhh","name":"hhhh","street":"hhhh","zip_code":"hhhh","city":"hhhhh"},{"category":"hhhh","name":"hhhh","street":"hhhh","zip_code":"hhhh","city":"hhhhh"},{"category":"hhhh","name":"hhhh","street":"hhhh","zip_code":"hhhh","city":"hhhhh"},{"category":"hhhh","name":"hhhh","street":"hhhh","zip_code":"hhhh","city":"hhhhh"},{"category":"hhhh","name":"hhhh","street":"hhhh","zip_code":"hhhh","city":"hhhhh"},{"category":"hhhh","name":"hhhh","street":"hhhh","zip_code":"hhhh","city":"hhhhh"},{"category":"hhhh","name":"hhhh","street":"hhhh","zip_code":"hhhh","city":"hhhhh"},{"category":"hhhh","name":"hhhh","street":"hhhh","zip_code":"hhhh","city":"hhhhh"},{"category":"hhhh","name":"hhhh","street":"hhhh","zip_code":"hhhh","city":"hhhhh"},{"category":"hhhh","name":"hhhh","street":"hhhh","zip_code":"hhhh","city":"hhhhh"},{"category":"hhhh","name":"hhhh","street":"hhhh","zip_code":"hhhh","city":"hhhhh"},{"category":"hhhh","name":"hhhh","street":"hhhh","zip_code":"hhhh","city":"hhhhh"},{"category":"hhhh","name":"hhhh","street":"hhhh","zip_code":"hhhh","city":"hhhhh"},{"category":"hhhh","name":"hhhh","street":"hhhh","zip_code":"hhhh","city":"hhhhh"},{"category":"hhhh","name":"hhhh","street":"hhhh","zip_code":"hhhh","city":"hhhhh"},{"category":"hhhh","name":"hhhh","street":"hhhh","zip_code":"hhhh","city":"hhhhh"},{"category":"hhhh","name":"hhhh","street":"hhhh","zip_code":"hhhh","city":"hhhhh"},{"category":"hhhh","name":"hhhh","street":"hhhh","zip_code":"hhhh","city":"hhhhh"},{"category":"hhhh","name":"hhhh","street":"hhhh","zip_code":"hhhh","city":"hhhhh"},{"category":"hhhh","name":"hhhh","street":"hhhh","zip_code":"hhhh","city":"hhhhh"},{"category":"hhhh","name":"hhhh","street":"hhhh","zip_code":"hhhh","city":"hhhhh"},{"category":"hhhh","name":"hhhh","street":"hhhh","zip_code":"hhhh","city":"hhhhh"},{"category":"hhhh","name":"hhhh","street":"hhhh","zip_code":"hhhh","city":"hhhhh"},{"category":"hhhh","name":"hhhh","street":"hhhh","zip_code":"hhhh","city":"hhhhh"},{"category":"hhhh","name":"hhhh","street":"hhhh","zip_code":"hhhh","city":"hhhhh"},{"category":"hhhh","name":"hhhh","street":"hhhh","zip_code":"hhhh","city":"hhhhh"},{"category":"hhhh","name":"hhhh","street":"hhhh","zip_code":"hhhh","city":"hhhhh"},{"category":"hhhh","name":"hhhh","street":"hhhh","zip_code":"hhhh","city":"hhhhh"},{"category":"hhhh","name":"hhhh","street":"hhhh","zip_code":"hhhh","city":"hhhhh"},{"category":"hhhh","name":"hhhh","street":"hhhh","zip_code":"hhhh","city":"hhhhh"},{"category":"hhhh","name":"hhhh","street":"hhhh","zip_code":"hhhh","city":"hhhhh"},{"category":"hhhh","name":"hhhh","street":"hhhh","zip_code":"hhhh","city":"hhhhh"},{"category":"hhhh","name":"hhhh","street":"hhhh","zip_code":"hhhh","city":"hhhhh"},{"category":"hhhh","name":"hhhh","street":"hhhh","zip_code":"hhhh","city":"hhhhh"},{"category":"hhhh","name":"hhhh","street":"hhhh","zip_code":"hhhh","city":"hhhhh"},{"category":"hhhh","name":"hhhh","street":"hhhh","zip_code":"hhhh","city":"hhhhh"},{"category":"hhhh","name":"hhhh","street":"hhhh","zip_code":"hhhh","city":"hhhhh"},{"category":"hhhh","name":"hhhh","street":"hhhh","zip_code":"hhhh","city":"hhhhh"},{"category":"hhhh","name":"hhhh","street":"hhhh","zip_code":"hhhh","city":"hhhhh"},{"category":"hhhh","name":"hhhh","street":"hhhh","zip_code":"hhhh","city":"hhhhh"},{"category":"hhhh","name":"hhhh","street":"hhhh","zip_code":"hhhh","city":"hhhhh"},{"category":"hhhh","name":"hhhh","street":"hhhh","zip_code":"hhhh","city":"hhhhh"},{"category":"hhhh","name":"hhhh","street":"hhhh","zip_code":"hhhh","city":"hhhhh"},{"category":"hhhh","name":"hhhh","street":"hhhh","zip_code":"hhhh","city":"hhhhh"},{"category":"hhhh","name":"hhhh","street":"hhhh","zip_code":"hhhh","city":"hhhhh"},{"category":"hhhh","name":"hhhh","street":"hhhh","zip_code":"hhhh","city":"hhhhh"},{"category":"hhhh","name":"hhhh","street":"hhhh","zip_code":"hhhh","city":"hhhhh"},{"category":"hhhh","name":"hhhh","street":"hhhh","zip_code":"hhhh","city":"hhhhh"},{"category":"hhhh","name":"hhhh","street":"hhhh","zip_code":"hhhh","city":"hhhhh"},{"category":"hhhh","name":"hhhh","street":"hhhh","zip_code":"hhhh","city":"hhhhh"},{"category":"hhhh","name":"hhhh","street":"hhhh","zip_code":"hhhh","city":"hhhhh"},{"category":"hhhh","name":"hhhh","street":"hhhh","zip_code":"hhhh","city":"hhhhh"},{"category":"hhhh","name":"hhhh","street":"hhhh","zip_code":"hhhh","city":"hhhhh"},{"category":"hhhh","name":"hhhh","street":"hhhh","zip_code":"hhhh","city":"hhhhh"},{"category":"hhhh","name":"hhhh","street":"hhhh","zip_code":"hhhh","city":"hhhhh"},{"category":"hhhh","name":"hhhh","street":"hhhh","zip_code":"hhhh","city":"hhhhh"},{"category":"hhhh","name":"hhhh","street":"hhhh","zip_code":"hhhh","city":"hhhhh"},{"category":"hhhh","name":"hhhh","street":"hhhh","zip_code":"hhhh","city":"hhhhh"},{"category":"hhhh","name":"hhhh","street":"hhhh","zip_code":"hhhh","city":"hhhhh"},{"category":"hhhh","name":"hhhh","street":"hhhh","zip_code":"hhhh","city":"hhhhh"},{"category":"hhhh","name":"hhhh","street":"hhhh","zip_code":"hhhh","city":"hhhhh"},{"category":"hhhh","name":"hhhh","street":"hhhh","zip_code":"hhhh","city":"hhhhh"},{"category":"hhhh","name":"hhhh","street":"hhhh","zip_code":"hhhh","city":"hhhhh"},{"category":"hhhh","name":"hhhh","street":"hhhh","zip_code":"hhhh","city":"hhhhh"},{"category":"hhhh","name":"hhhh","street":"hhhh","zip_code":"hhhh","city":"hhhhh"},{"category":"hhhh","name":"hhhh","street":"hhhh","zip_code":"hhhh","city":"hhhhh"},{"category":"hhhh","name":"hhhh","street":"hhhh","zip_code":"hhhh","city":"hhhhh"},{"category":"hhhh","name":"hhhh","street":"hhhh","zip_code":"hhhh","city":"hhhhh"},{"category":"hhhh","name":"hhhh","street":"hhhh","zip_code":"hhhh","city":"hhhhh"},{"category":"hhhh","name":"hhhh","street":"hhhh","zip_code":"hhhh","city":"hhhhh"},{"category":"hhhh","name":"hhhh","street":"hhhh","zip_code":"hhhh","city":"hhhhh"},{"category":"hhhh","name":"hhhh","street":"hhhh","zip_code":"hhhh","city":"hhhhh"},{"category":"hhhh","name":"hhhh","street":"hhhh","zip_code":"hhhh","city":"hhhhh"},{"category":"hhhh","name":"hhhh","street":"hhhh","zip_code":"hhhh","city":"hhhhh"},{"category":"hhhh","name":"hhhh","street":"hhhh","zip_code":"hhhh","city":"hhhhh"},{"category":"hhhh","name":"hhhh","street":"hhhh","zip_code":"hhhh","city":"hhhhh"},{"category":"hhhh","name":"hhhh","street":"hhhh","zip_code":"hhhh","city":"hhhhh"},{"category":"hhhh","name":"hhhh","street":"hhhh","zip_code":"hhhh","city":"hhhhh"},{"category":"hhhh","name":"hhhh","street":"hhhh","zip_code":"hhhh","city":"hhhhh"},{"category":"hhhh","name":"hhhh","street":"hhhh","zip_code":"hhhh","city":"hhhhh"},{"category":"hhhh","name":"hhhh","street":"hhhh","zip_code":"hhhh","city":"hhhhh"},{"category":"hhhh","name":"hhhh","street":"hhhh","zip_code":"hhhh","city":"hhhhh"},{"category":"hhhh","name":"hhhh","street":"hhhh","zip_code":"hhhh","city":"hhhhh"},{"category":"hhhh","name":"hhhh","street":"hhhh","zip_code":"hhhh","city":"hhhhh"},{"category":"hhhh","name":"hhhh","street":"hhhh","zip_code":"hhhh","city":"hhhhh"},{"category":"hhhh","name":"hhhh","street":"hhhh","zip_code":"hhhh","city":"hhhhh"},{"category":"hhhh","name":"hhhh","street":"hhhh","zip_code":"hhhh","city":"hhhhh"},{"category":"hhhh","name":"hhhh","street":"hhhh","zip_code":"hhhh","city":"hhhhh"},{"category":"hhhh","name":"hhhh","street":"hhhh","zip_code":"hhhh","city":"hhhhh"},{"category":"hhhh","name":"hhhh","street":"hhhh","zip_code":"hhhh","city":"hhhhh"},{"category":"hhhh","name":"hhhh","street":"hhhh","zip_code":"hhhh","city":"hhhhh"},{"category":"hhhh","name":"hhhh","street":"hhhh","zip_code":"hhhh","city":"hhhhh"},{"category":"hhhh","name":"hhhh","street":"hhhh","zip_code":"hhhh","city":"hhhhh"},{"category":"hhhh","name":"hhhh","street":"hhhh","zip_code":"hhhh","city":"hhhhh"},{"category":"hhhh","name":"hhhh","street":"hhhh","zip_code":"hhhh","city":"hhhhh"},{"category":"hhhh","name":"hhhh","street":"hhhh","zip_code":"hhhh","city":"hhhhh"},{"category":"hhhh","name":"hhhh","street":"hhhh","zip_code":"hhhh","city":"hhhhh"},{"category":"hhhh","name":"hhhh","street":"hhhh","zip_code":"hhhh","city":"hhhhh"},{"category":"hhhh","name":"hhhh","street":"hhhh","zip_code":"hhhh","city":"hhhhh"},{"category":"hhhh","name":"hhhh","street":"hhhh","zip_code":"hhhh","city":"hhhhh"},{"category":"hhhh","name":"hhhh","street":"hhhh","zip_code":"hhhh","city":"hhhhh"},{"category":"hhhh","name":"hhhh","street":"hhhh","zip_code":"hhhh","city":"hhhhh"},{"category":"hhhh","name":"hhhh","street":"hhhh","zip_code":"hhhh","city":"hhhhh"},{"category":"hhhh","name":"hhhh","street":"hhhh","zip_code":"hhhh","city":"hhhhh"},{"category":"hhhh","name":"hhhh","street":"hhhh","zip_code":"hhhh","city":"hhhhh"},{"category":"hhhh","name":"hhhh","street":"hhhh","zip_code":"hhhh","city":"hhhhh"},{"category":"hhhh","name":"hhhh","street":"hhhh","zip_code":"hhhh","city":"hhhhh"},{"category":"hhhh","name":"hhhh","street":"hhhh","zip_code":"hhhh","city":"hhhhh"},{"category":"hhhh","name":"hhhh","street":"hhhh","zip_code":"hhhh","city":"hhhhh"},{"category":"hhhh","name":"hhhh","street":"hhhh","zip_code":"hhhh","city":"hhhhh"},{"category":"hhhh","name":"hhhh","street":"hhhh","zip_code":"hhhh","city":"hhhhh"},{"category":"hhhh","name":"hhhh","street":"hhhh","zip_code":"hhhh","city":"hhhhh"},{"category":"hhhh","name":"hhhh","street":"hhhh","zip_code":"hhhh","city":"hhhhh"},{"category":"hhhh","name":"hhhh","street":"hhhh","zip_code":"hhhh","city":"hhhhh"},{"category":"hhhh","name":"hhhh","street":"hhhh","zip_code":"hhhh","city":"hhhhh"},{"category":"hhhh","name":"hhhh","street":"hhhh","zip_code":"hhhh","city":"hhhhh"},{"category":"hhhh","name":"hhhh","street":"hhhh","zip_code":"hhhh","city":"hhhhh"},{"category":"hhhh","name":"hhhh","street":"hhhh","zip_code":"hhhh","city":"hhhhh"},{"category":"hhhh","name":"hhhh","street":"hhhh","zip_code":"hhhh","city":"hhhhh"},{"category":"hhhh","name":"hhhh","street":"hhhh","zip_code":"hhhh","city":"hhhhh"},{"category":"hhhh","name":"hhhh","street":"hhhh","zip_code":"hhhh","city":"hhhhh"},{"category":"hhhh","name":"hhhh","street":"hhhh","zip_code":"hhhh","city":"hhhhh"},{"category":"hhhh","name":"hhhh","street":"hhhh","zip_code":"hhhh","city":"hhhhh"},{"category":"hhhh","name":"hhhh","street":"hhhh","zip_code":"hhhh","city":"hhhhh"},{"category":"hhhh","name":"hhhh","street":"hhhh","zip_code":"hhhh","city":"hhhhh"},{"category":"hhhh","name":"hhhh","street":"hhhh","zip_code":"hhhh","city":"hhhhh"},{"category":"hhhh","name":"hhhh","street":"hhhh","zip_code":"hhhh","city":"hhhhh"},{"category":"hhhh","name":"hhhh","street":"hhhh","zip_code":"hhhh","city":"hhhhh"},{"category":"hhhh","name":"hhhh","street":"hhhh","zip_code":"hhhh","city":"hhhhh"},{"category":"hhhh","name":"hhhh","street":"hhhh","zip_code":"hhhh","city":"hhhhh"},{"category":"hhhh","name":"hhhh","street":"hhhh","zip_code":"hhhh","city":"hhhhh"},{"category":"hhhh","name":"hhhh","street":"hhhh","zip_code":"hhhh","city":"hhhhh"},{"category":"hhhh","name":"hhhh","street":"hhhh","zip_code":"hhhh","city":"hhhhh"},{"category":"hhhh","name":"hhhh","street":"hhhh","zip_code":"hhhh","city":"hhhhh"},{"category":"hhhh","name":"hhhh","street":"hhhh","zip_code":"hhhh","city":"hhhhh"},{"category":"hhhh","name":"hhhh","street":"hhhh","zip_code":"hhhh","city":"hhhhh"},{"category":"hhhh","name":"hhhh","street":"hhhh","zip_code":"hhhh","city":"hhhhh"},{"category":"hhhh","name":"hhhh","street":"hhhh","zip_code":"hhhh","city":"hhhhh"},{"category":"hhhh","name":"hhhh","street":"hhhh","zip_code":"hhhh","city":"hhhhh"},{"category":"hhhh","name":"hhhh","street":"hhhh","zip_code":"hhhh","city":"hhhhh"},{"category":"hhhh","name":"hhhh","street":"hhhh","zip_code":"hhhh","city":"hhhhh"},{"category":"hhhh","name":"hhhh","street":"hhhh","zip_code":"hhhh","city":"hhhhh"},{"category":"ssss","name":"sss","street":"sss","zip_code":"ssssss","city":"sssss"},{"category":"ccc","name":"cccc","street":"ccc","zip_code":"ccc","city":"cccc"},{"category":"ccc","name":"cccc","street":"ccc","zip_code":"ccc","city":"cccc"},{"category":"ccc","name":"cccc","street":"ccc","zip_code":"ccc","city":"cccc"},{"category":"fffffffffffffffff","name":"fffffffffffffffff","street":"fffffffffffffffff","zip_code":"fffffffffffffffff","city":"fffffffffffffffff"},{"category":"xxxxxxxx","name":"xxxxxxxxx","street":"xxxxxxxxxxx","zip_code":"ttttttttttttyyyy","city":"xxxxxxxxx"},{"category":"yyyyyyyy","name":"yyyyyyyyy","street":"yyyyyy","zip_code":"yyyyyyyyyyyyyy","city":"nairobi"},{"category":"vvvvvvvvvvvvvvvvvvvvvvvvvv","name":"vvvvvvvvvvvvvvvvvvvvvvvv","street":"vvvvvvvvvvvvvvvvvvvvvvv","zip_code":"vvvvvvvvvvvvvvvvvvvvv","city":"nairobi"},{"category":"vvvvvvvvvvvvvvvvvvvvvvvvvv","name":"vvvvvvvvvvvvvvvvvvvvvvvv","street":"vvvvvvvvvvvvvvvvvvvvvvv","zip_code":"vvvvvvvvvvvvvvvvvvvvv","city":"nairobi"},{"category":"tttttttttttttttttttttttt","name":"tttttttttttttttttttttttt","street":"tttttttttttttttttttttttt","zip_code":"tttttttttttttttttttttttt","city":"nairobi"},{"category":"ffffffffffffffffff","name":"ffffffffffffffffffmmmmmmmmmmm","street":"ffffffffffffffffffmmmmmmmmmmm","zip_code":"ffffffffffffffffffmmmmmmmmmmm","city":"mombasa"},{"category":"ffffffffffffffffff","name":"ffffffffffffffffffmmmmmmmmmmm","street":"ffffffffffffffffffmmmmmmmmmmm","zip_code":"ffffffffffffffffffmmmmmmmmmmm","city":"mombasa"},{"category":"nnnnnnnnnnnnnnnn","name":"nnnnnnnnnnnnnnnn","street":"nnnnnnnnnnnnnnnn","zip_code":"nnnnnnnnnnnnnnnn","city":"mombasa"},{"category":"nnnnnnnnnnnnnnnn","name":"nnnnnnnnnnnnnnnn","street":"nnnnnnnnnnnnnnnn","zip_code":"nnnnnnnnnnnnnnnn","city":"mombasa"},{"category":"nnnnnnnnnnnnnnnn","name":"nnnnnnnnnnnnnnnn","street":"nnnnnnnnnnnnnnnn","zip_code":"nnnnnnnnnnnnnnnn","city":"mombasa"},{"category":"vvvvvvvvvvvvvvv","name":"vvvvvvvvvvvvvvv","street":"vvvvvvvvvvvvvvv","zip_code":"vvvvvvvvvvvvvvv","city":"mombasa"},{"category":"xxxxxxxxxxxxxxx","name":"xxxxxxxxxxxxxxx","street":"xxxxxxxxxxxxxxx","zip_code":"xxxxxxxxxxxxxxx","city":"nairobi"},{"category":"nairobi","name":"nairobi","street":"nairobinairobi","zip_code":"nairobi","city":"nairobi"},{"category":"nairobi","name":"nairobi","street":"nairobinairobi","zip_code":"nairobi","city":"nairobi"},{"category":"zxxxxxxzzzzzz","name":"zxxxxxxzzzzzz","street":"zxxxxxxzzzzzz","zip_code":"zxxxxxxzzzzzz","city":"mombasa"},{"category":"zxxxxxxzzzzzz","name":"zxxxxxxzzzzzz","street":"zxxxxxxzzzzzz","zip_code":"zxxxxxxzzzzzz","city":"mombasa"},{"category":"zxxxxxxzzzzzz","name":"zxxxxxxzzzzzz","street":"zxxxxxxzzzzzz","zip_code":"zxxxxxxzzzzzz","city":"mombasa"},{"category":"zxxxxxxzzzzzz","name":"zxxxxxxzzzzzz","street":"zxxxxxxzzzzzz","zip_code":"zxxxxxxzzzzzz","city":"mombasa"},{"category":"zxxxxxxzzzzzz","name":"zxxxxxxzzzzzz","street":"zxxxxxxzzzzzz","zip_code":"zxxxxxxzzzzzz","city":"mombasa"},{"category":"zxxxxxxzzzzzz","name":"zxxxxxxzzzzzz","street":"zxxxxxxzzzzzz","zip_code":"zxxxxxxzzzzzz","city":"mombasa"},{"category":"zxxxxxxzzzzzz","name":"zxxxxxxzzzzzz","street":"zxxxxxxzzzzzz","zip_code":"zxxxxxxzzzzzz","city":"mombasa"}]}